FALCONSAT-6             
1 43815U 18099BK  26068.72544389  .00005029  00000+0  19477-3 0  9998
2 43815  97.3865 145.8165 0014370 297.0944 181.0714 15.26532865398556
STARLINK-34278          
1 64391U 25127X   26068.38327428  .00028922  00000+0  10566-2 0  9991
2 64391  42.9994 181.2082 0001176 232.4641 127.6104 15.27574143 42423
